[{"OBJECT_NAME":"KUIPER-00132","OBJECT_ID":"2025-217B","EPOCH":"2026-03-05T20:29:18.643200","MEAN_MOTION":15.39619087,"ECCENTRICITY":0.0005866,"INCLINATION":51.8609,"RA_OF_ASC_NODE":22.1219,"ARG_OF_PERICENTER":331.3843,"MEAN_ANOMALY":28.6822,"EPHEMERIS_TYPE":0,"CLASSIFICATION_TYPE":"U","NORAD_CAT_ID":65763,"ELEMENT_SET_NO":999,"REV_AT_EPOCH":2483,"BSTAR":0.0017297,"MEAN_MOTION_DOT":0.0006952,"MEAN_MOTION_DDOT":0},{"OBJECT_NAME":"KUIPER-00133","OBJECT_ID":"2025-217C","EPOCH":"2026-03-05T05:58:47.009280","MEAN_MOTION":14.799369,"ECCENTRICITY":0.0002059,"INCLINATION":51.9043,"RA_OF_ASC_NODE":72.7545,"ARG_OF_PERICENTER":15.9257,"MEAN_ANOMALY":344.177,"EPHEMERIS_TYPE":0,"CLASSIFICATION_TYPE":"U","NORAD_CAT_ID":65764,"ELEMENT_SET_NO":999,"REV_AT_EPOCH":2408,"BSTAR":-0.00017159,"MEAN_MOTION_DOT":-1.529e-5,"MEAN_MOTION_DDOT":0},{"OBJECT_NAME":"KUIPER-00139","OBJECT_ID":"2025-217D","EPOCH":"2026-03-05T06:00:50.708160","MEAN_MOTION":15.01801499,"ECCENTRICITY":0.0007106,"INCLINATION":51.8859,"RA_OF_ASC_NODE":54.1206,"ARG_OF_PERICENTER":305.386,"MEAN_ANOMALY":54.6447,"EPHEMERIS_TYPE":0,"CLASSIFICATION_TYPE":"U","NORAD_CAT_ID":65765,"ELEMENT_SET_NO":999,"REV_AT_EPOCH":2434,"BSTAR":0.00088362,"MEAN_MOTION_DOT":0.00011401,"MEAN_MOTION_DDOT":0},{"OBJECT_NAME":"KUIPER-00142","OBJECT_ID":"2025-217E","EPOCH":"2026-03-05T08:51:57.948480","MEAN_MOTION":14.79934159,"ECCENTRICITY":5.78e-5,"INCLINATION":51.9001,"RA_OF_ASC_NODE":54.6943,"ARG_OF_PERICENTER":94.891,"MEAN_ANOMALY":265.2118,"EPHEMERIS_TYPE":0,"CLASSIFICATION_TYPE":"U","NORAD_CAT_ID":65766,"ELEMENT_SET_NO":999,"REV_AT_EPOCH":2434,"BSTAR":0.00055067,"MEAN_MOTION_DOT":3.979e-5,"MEAN_MOTION_DDOT":0},{"OBJECT_NAME":"KUIPER-00145","OBJECT_ID":"2025-217F","EPOCH":"2026-03-05T08:47:56.225472","MEAN_MOTION":14.79943314,"ECCENTRICITY":8.5e-5,"INCLINATION":51.8997,"RA_OF_ASC_NODE":57.2197,"ARG_OF_PERICENTER":83.1646,"MEAN_ANOMALY":276.9413,"EPHEMERIS_TYPE":0,"CLASSIFICATION_TYPE":"U","NORAD_CAT_ID":65767,"ELEMENT_SET_NO":999,"REV_AT_EPOCH":2430,"BSTAR":0.00078011,"MEAN_MOTION_DOT":5.732e-5,"MEAN_MOTION_DDOT":0},{"OBJECT_NAME":"KUIPER-00147","OBJECT_ID":"2025-217G","EPOCH":"2026-03-05T16:01:45.688224","MEAN_MOTION":14.79946357,"ECCENTRICITY":0.000124,"INCLINATION":51.8974,"RA_OF_ASC_NODE":58.3821,"ARG_OF_PERICENTER":71.4369,"MEAN_ANOMALY":288.6728,"EPHEMERIS_TYPE":0,"CLASSIFICATION_TYPE":"U","NORAD_CAT_ID":65768,"ELEMENT_SET_NO":999,"REV_AT_EPOCH":2431,"BSTAR":0.00012384,"MEAN_MOTION_DOT":7.23e-6,"MEAN_MOTION_DDOT":0},{"OBJECT_NAME":"KUIPER-00148","OBJECT_ID":"2025-217H","EPOCH":"2026-03-05T07:16:18.003360","MEAN_MOTION":15.09601703,"ECCENTRICITY":0.0008487,"INCLINATION":51.8788,"RA_OF_ASC_NODE":44.9805,"ARG_OF_PERICENTER":339.4478,"MEAN_ANOMALY":20.6154,"EPHEMERIS_TYPE":0,"CLASSIFICATION_TYPE":"U","NORAD_CAT_ID":65769,"ELEMENT_SET_NO":999,"REV_AT_EPOCH":2447,"BSTAR":0.00098925,"MEAN_MOTION_DOT":0.00015844,"MEAN_MOTION_DDOT":0},{"OBJECT_NAME":"KUIPER-00150","OBJECT_ID":"2025-217J","EPOCH":"2026-03-05T10:54:13.135680","MEAN_MOTION":14.80008603,"ECCENTRICITY":7.01e-5,"INCLINATION":51.9005,"RA_OF_ASC_NODE":69.3323,"ARG_OF_PERICENTER":49.2335,"MEAN_ANOMALY":310.8688,"EPHEMERIS_TYPE":0,"CLASSIFICATION_TYPE":"U","NORAD_CAT_ID":65770,"ELEMENT_SET_NO":999,"REV_AT_EPOCH":2414,"BSTAR":0.00076282,"MEAN_MOTION_DOT":5.609e-5,"MEAN_MOTION_DDOT":0},{"OBJECT_NAME":"KUIPER-00151","OBJECT_ID":"2025-217K","EPOCH":"2026-03-05T11:06:06.525792","MEAN_MOTION":14.79938169,"ECCENTRICITY":8.61e-5,"INCLINATION":51.9023,"RA_OF_ASC_NODE":61.7926,"ARG_OF_PERICENTER":47.5445,"MEAN_ANOMALY":312.559,"EPHEMERIS_TYPE":0,"CLASSIFICATION_TYPE":"U","NORAD_CAT_ID":65771,"ELEMENT_SET_NO":999,"REV_AT_EPOCH":2425,"BSTAR":-0.00056106,"MEAN_MOTION_DOT":-4.496e-5,"MEAN_MOTION_DDOT":0},{"OBJECT_NAME":"KUIPER-00152","OBJECT_ID":"2025-217L","EPOCH":"2026-03-05T15:28:37.345152","MEAN_MOTION":14.79949813,"ECCENTRICITY":6.21e-5,"INCLINATION":51.9005,"RA_OF_ASC_NODE":48.4794,"ARG_OF_PERICENTER":117.5675,"MEAN_ANOMALY":242.535,"EPHEMERIS_TYPE":0,"CLASSIFICATION_TYPE":"U","NORAD_CAT_ID":65772,"ELEMENT_SET_NO":999,"REV_AT_EPOCH":2445,"BSTAR":-0.00035282,"MEAN_MOTION_DOT":-2.911e-5,"MEAN_MOTION_DDOT":0},{"OBJECT_NAME":"KUIPER-00153","OBJECT_ID":"2025-217M","EPOCH":"2026-03-05T15:15:57.203136","MEAN_MOTION":15.13157862,"ECCENTRICITY":0.0010302,"INCLINATION":51.8805,"RA_OF_ASC_NODE":46.4134,"ARG_OF_PERICENTER":311.4382,"MEAN_ANOMALY":48.5709,"EPHEMERIS_TYPE":0,"CLASSIFICATION_TYPE":"U","NORAD_CAT_ID":65773,"ELEMENT_SET_NO":999,"REV_AT_EPOCH":2448,"BSTAR":0.0010485,"MEAN_MOTION_DOT":0.00018588,"MEAN_MOTION_DDOT":0},{"OBJECT_NAME":"KUIPER-00155","OBJECT_ID":"2025-217N","EPOCH":"2026-03-05T14:19:13.598688","MEAN_MOTION":15.23035957,"ECCENTRICITY":0.0005552,"INCLINATION":51.8784,"RA_OF_ASC_NODE":30.8773,"ARG_OF_PERICENTER":316.7439,"MEAN_ANOMALY":43.3105,"EPHEMERIS_TYPE":0,"CLASSIFICATION_TYPE":"U","NORAD_CAT_ID":65774,"ELEMENT_SET_NO":999,"REV_AT_EPOCH":2469,"BSTAR":0.00091638,"MEAN_MOTION_DOT":0.00021604,"MEAN_MOTION_DDOT":0},{"OBJECT_NAME":"KUIPER-00156","OBJECT_ID":"2025-217P","EPOCH":"2026-03-05T08:18:48.928896","MEAN_MOTION":14.79936911,"ECCENTRICITY":8.27e-5,"INCLINATION":51.9032,"RA_OF_ASC_NODE":44.8293,"ARG_OF_PERICENTER":84.7028,"MEAN_ANOMALY":275.4028,"EPHEMERIS_TYPE":0,"CLASSIFICATION_TYPE":"U","NORAD_CAT_ID":65775,"ELEMENT_SET_NO":999,"REV_AT_EPOCH":2447,"BSTAR":4.7177e-6,"MEAN_MOTION_DOT":-1.85e-6,"MEAN_MOTION_DDOT":0},{"OBJECT_NAME":"KUIPER-00158","OBJECT_ID":"2025-217Q","EPOCH":"2026-03-05T10:00:34.556832","MEAN_MOTION":14.80491942,"ECCENTRICITY":0.0001083,"INCLINATION":51.8966,"RA_OF_ASC_NODE":64.3735,"ARG_OF_PERICENTER":44.8091,"MEAN_ANOMALY":315.2959,"EPHEMERIS_TYPE":0,"CLASSIFICATION_TYPE":"U","NORAD_CAT_ID":65776,"ELEMENT_SET_NO":999,"REV_AT_EPOCH":2421,"BSTAR":0.00095287,"MEAN_MOTION_DOT":7.147e-5,"MEAN_MOTION_DDOT":0},{"OBJECT_NAME":"KUIPER-00163","OBJECT_ID":"2025-217R","EPOCH":"2026-03-05T20:00:00.999360","MEAN_MOTION":14.95718674,"ECCENTRICITY":8.05e-5,"INCLINATION":51.8979,"RA_OF_ASC_NODE":64.3614,"ARG_OF_PERICENTER":317.4863,"MEAN_ANOMALY":104.2565,"EPHEMERIS_TYPE":0,"CLASSIFICATION_TYPE":"U","NORAD_CAT_ID":65777,"ELEMENT_SET_NO":999,"REV_AT_EPOCH":558,"BSTAR":0.010824,"MEAN_MOTION_DOT":0.00123765,"MEAN_MOTION_DDOT":0},{"OBJECT_NAME":"KUIPER-00165","OBJECT_ID":"2025-217S","EPOCH":"2026-03-05T09:40:32.142720","MEAN_MOTION":14.79933805,"ECCENTRICITY":8.22e-5,"INCLINATION":51.901,"RA_OF_ASC_NODE":54.5512,"ARG_OF_PERICENTER":93.2105,"MEAN_ANOMALY":266.8951,"EPHEMERIS_TYPE":0,"CLASSIFICATION_TYPE":"U","NORAD_CAT_ID":65778,"ELEMENT_SET_NO":999,"REV_AT_EPOCH":2434,"BSTAR":-0.001047,"MEAN_MOTION_DOT":-8.194e-5,"MEAN_MOTION_DDOT":0},{"OBJECT_NAME":"KUIPER-00166","OBJECT_ID":"2025-217T","EPOCH":"2026-03-05T07:34:07.734720","MEAN_MOTION":14.79992933,"ECCENTRICITY":6.79e-5,"INCLINATION":51.9042,"RA_OF_ASC_NODE":42.4609,"ARG_OF_PERICENTER":95.3066,"MEAN_ANOMALY":264.7974,"EPHEMERIS_TYPE":0,"CLASSIFICATION_TYPE":"U","NORAD_CAT_ID":65779,"ELEMENT_SET_NO":999,"REV_AT_EPOCH":2450,"BSTAR":0.00085529,"MEAN_MOTION_DOT":6.314e-5,"MEAN_MOTION_DDOT":0}]
