KUIPER-00132            
1 65763U 25217B   26064.85368800  .00069520  00000+0  17297-2 0  9999
2 65763  51.8609  22.1219 0005866 331.3843  28.6822 15.39619087 24839
KUIPER-00133            
1 65764U 25217C   26064.24915520 -.00001529  00000+0 -17159-3 0  9995
2 65764  51.9043  72.7545 0002059  15.9257 344.1770 14.79936900 24085
KUIPER-00139            
1 65765U 25217D   26064.25058690  .00011401  00000+0  88362-3 0  9995
2 65765  51.8859  54.1206 0007106 305.3860  54.6447 15.01801499 24345
KUIPER-00142            
1 65766U 25217E   26064.36942070  .00003979  00000+0  55067-3 0  9999
2 65766  51.9001  54.6943 0000578  94.8910 265.2118 14.79934159 24340
KUIPER-00145            
1 65767U 25217F   26064.36662298  .00005732  00000+0  78011-3 0  9994
2 65767  51.8997  57.2197 0000850  83.1646 276.9413 14.79943314 24300
KUIPER-00147            
1 65768U 25217G   26064.66788991  .00000723  00000+0  12384-3 0  9993
2 65768  51.8974  58.3821 0001240  71.4369 288.6728 14.79946357 24318
KUIPER-00148            
1 65769U 25217H   26064.30298615  .00015844  00000+0  98925-3 0  9999
2 65769  51.8788  44.9805 0008487 339.4478  20.6154 15.09601703 24474
KUIPER-00150            
1 65770U 25217J   26064.45431870  .00005609  00000+0  76282-3 0  9999
2 65770  51.9005  69.3323 0000701  49.2335 310.8688 14.80008603 24142
KUIPER-00151            
1 65771U 25217K   26064.46257553 -.00004496  00000+0 -56106-3 0  9993
2 65771  51.9023  61.7926 0000861  47.5445 312.5590 14.79938169 24258
KUIPER-00152            
1 65772U 25217L   26064.64487668 -.00002911  00000+0 -35282-3 0  9998
2 65772  51.9005  48.4794 0000621 117.5675 242.5350 14.79949813 24457
KUIPER-00153            
1 65773U 25217M   26064.63607874  .00018588  00000+0  10485-2 0  9993
2 65773  51.8805  46.4134 0010302 311.4382  48.5709 15.13157862 24487
KUIPER-00155            
1 65774U 25217N   26064.59668517  .00021604  00000+0  91638-3 0  9993
2 65774  51.8784  30.8773 0005552 316.7439  43.3105 15.23035957 24699
KUIPER-00156            
1 65775U 25217P   26064.34639964 -.00000185  00000+0  47177-5 0  9994
2 65775  51.9032  44.8293 0000827  84.7028 275.4028 14.79936911 24473
KUIPER-00158            
1 65776U 25217Q   26064.41706663  .00007147  00000+0  95287-3 0  9991
2 65776  51.8966  64.3735 0001083  44.8091 315.2959 14.80491942 24219
KUIPER-00163            
1 65777U 25217R   26064.83334490  .00123765  00000+0  10824-1 0  9990
2 65777  51.8979  64.3614 0000805 317.4863 104.2565 14.95718674  5585
KUIPER-00165            
1 65778U 25217S   26064.40314980 -.00008194  00000+0 -10470-2 0  9994
2 65778  51.9010  54.5512 0000822  93.2105 266.8951 14.79933805 24344
KUIPER-00166            
1 65779U 25217T   26064.31536730  .00006314  00000+0  85529-3 0  9992
2 65779  51.9042  42.4609 0000679  95.3066 264.7974 14.79992933 24509
